[{"OBJECT_NAME":"YUBILEINY (RS30)","OBJECT_ID":"2008-025A","EPOCH":"2026-03-05T06:45:24.624864","MEAN_MOTION":12.43175674,"ECCENTRICITY":0.00193653,"INCLINATION":82.4985,"RA_OF_ASC_NODE":60.0657,"ARG_OF_PERICENTER":174.8578,"MEAN_ANOMALY":185.2705,"EPHEMERIS_TYPE":0,"CLASSIFICATION_TYPE":"U","NORAD_CAT_ID":32953,"ELEMENT_SET_NO":999,"REV_AT_EPOCH":80678,"BSTAR":-0.0003582452,"MEAN_MOTION_DOT":-4.0e-7,"MEAN_MOTION_DDOT":0},{"OBJECT_NAME":"FENGYUN 3A","OBJECT_ID":"2008-026A","EPOCH":"2026-03-05T07:04:21.085536","MEAN_MOTION":14.19544776,"ECCENTRICITY":0.00097869,"INCLINATION":98.6794,"RA_OF_ASC_NODE":7.1251,"ARG_OF_PERICENTER":69.6133,"MEAN_ANOMALY":290.6093,"EPHEMERIS_TYPE":0,"CLASSIFICATION_TYPE":"U","NORAD_CAT_ID":32958,"ELEMENT_SET_NO":999,"REV_AT_EPOCH":92066,"BSTAR":9.6918181e-5,"MEAN_MOTION_DOT":1.61e-6,"MEAN_MOTION_DDOT":0},{"OBJECT_NAME":"HUANJING 1A (HJ-1A)","OBJECT_ID":"2008-041A","EPOCH":"2026-03-05T06:02:21.657120","MEAN_MOTION":14.83703443,"ECCENTRICITY":0.00205011,"INCLINATION":97.6626,"RA_OF_ASC_NODE":54.1646,"ARG_OF_PERICENTER":117.2955,"MEAN_ANOMALY":243.035,"EPHEMERIS_TYPE":0,"CLASSIFICATION_TYPE":"U","NORAD_CAT_ID":33320,"ELEMENT_SET_NO":999,"REV_AT_EPOCH":94299,"BSTAR":0.00036973705,"MEAN_MOTION_DOT":3.016e-5,"MEAN_MOTION_DDOT":0},{"OBJECT_NAME":"HUANJING 1B (HJ-1B)","OBJECT_ID":"2008-041B","EPOCH":"2026-03-05T07:27:11.589984","MEAN_MOTION":14.83088759,"ECCENTRICITY":0.00366993,"INCLINATION":97.6471,"RA_OF_ASC_NODE":57.6965,"ARG_OF_PERICENTER":161.9838,"MEAN_ANOMALY":198.2687,"EPHEMERIS_TYPE":0,"CLASSIFICATION_TYPE":"U","NORAD_CAT_ID":33321,"ELEMENT_SET_NO":999,"REV_AT_EPOCH":94301,"BSTAR":0.00016993175,"MEAN_MOTION_DOT":1.348e-5,"MEAN_MOTION_DDOT":0},{"OBJECT_NAME":"SHIJIAN-6 03A (SJ-6 03A)","OBJECT_ID":"2008-053A","EPOCH":"2026-03-05T07:58:07.790304","MEAN_MOTION":15.15995414,"ECCENTRICITY":0.00119839,"INCLINATION":97.8536,"RA_OF_ASC_NODE":94.0634,"ARG_OF_PERICENTER":18.5111,"MEAN_ANOMALY":341.6554,"EPHEMERIS_TYPE":0,"CLASSIFICATION_TYPE":"U","NORAD_CAT_ID":33408,"ELEMENT_SET_NO":999,"REV_AT_EPOCH":94722,"BSTAR":0.00067124457,"MEAN_MOTION_DOT":0.00012854,"MEAN_MOTION_DDOT":0},{"OBJECT_NAME":"SHIJIAN-6 03B (SJ-6 03B)","OBJECT_ID":"2008-053B","EPOCH":"2026-03-05T07:41:04.716672","MEAN_MOTION":15.03837125,"ECCENTRICITY":0.00203185,"INCLINATION":97.8663,"RA_OF_ASC_NODE":82.476,"ARG_OF_PERICENTER":35.0739,"MEAN_ANOMALY":325.1819,"EPHEMERIS_TYPE":0,"CLASSIFICATION_TYPE":"U","NORAD_CAT_ID":33409,"ELEMENT_SET_NO":999,"REV_AT_EPOCH":94713,"BSTAR":0.00041307665,"MEAN_MOTION_DOT":5.644e-5,"MEAN_MOTION_DDOT":0},{"OBJECT_NAME":"CHUANGXIN 1-02 (CX-1-02)","OBJECT_ID":"2008-056B","EPOCH":"2026-03-05T07:58:46.394688","MEAN_MOTION":14.30130101,"ECCENTRICITY":0.00154486,"INCLINATION":98.6252,"RA_OF_ASC_NODE":91.5825,"ARG_OF_PERICENTER":85.8308,"MEAN_ANOMALY":274.464,"EPHEMERIS_TYPE":0,"CLASSIFICATION_TYPE":"U","NORAD_CAT_ID":33434,"ELEMENT_SET_NO":999,"REV_AT_EPOCH":90377,"BSTAR":0.0001423345,"MEAN_MOTION_DOT":3.25e-6,"MEAN_MOTION_DDOT":0},{"OBJECT_NAME":"STARS (KUKAI)","OBJECT_ID":"2009-002G","EPOCH":"2026-03-05T07:12:48.962016","MEAN_MOTION":14.94879935,"ECCENTRICITY":0.00091962,"INCLINATION":98.146,"RA_OF_ASC_NODE":7.4965,"ARG_OF_PERICENTER":144.6298,"MEAN_ANOMALY":215.5533,"EPHEMERIS_TYPE":0,"CLASSIFICATION_TYPE":"U","NORAD_CAT_ID":33498,"ELEMENT_SET_NO":999,"REV_AT_EPOCH":92295,"BSTAR":0.00060600625,"MEAN_MOTION_DOT":6.552e-5,"MEAN_MOTION_DDOT":0},{"OBJECT_NAME":"KKS-1 (KISEKI)","OBJECT_ID":"2009-002H","EPOCH":"2026-03-05T05:07:36.680736","MEAN_MOTION":14.82809137,"ECCENTRICITY":0.00064287,"INCLINATION":98.1191,"RA_OF_ASC_NODE":345.041,"ARG_OF_PERICENTER":268.5613,"MEAN_ANOMALY":91.4863,"EPHEMERIS_TYPE":0,"CLASSIFICATION_TYPE":"U","NORAD_CAT_ID":33499,"ELEMENT_SET_NO":999,"REV_AT_EPOCH":92078,"BSTAR":0.00031933039,"MEAN_MOTION_DOT":2.528e-5,"MEAN_MOTION_DDOT":0},{"OBJECT_NAME":"NOAA 19","OBJECT_ID":"2009-005A","EPOCH":"2026-03-05T04:55:04.335456","MEAN_MOTION":14.13455863,"ECCENTRICITY":0.00130648,"INCLINATION":98.9615,"RA_OF_ASC_NODE":134.9683,"ARG_OF_PERICENTER":328.0949,"MEAN_ANOMALY":31.9431,"EPHEMERIS_TYPE":0,"CLASSIFICATION_TYPE":"U","NORAD_CAT_ID":33591,"ELEMENT_SET_NO":999,"REV_AT_EPOCH":87979,"BSTAR":6.7384558e-5,"MEAN_MOTION_DOT":8.2e-7,"MEAN_MOTION_DDOT":0},{"OBJECT_NAME":"UK-DMC 2","OBJECT_ID":"2009-041C","EPOCH":"2026-03-05T07:07:29.935200","MEAN_MOTION":14.7584043,"ECCENTRICITY":0.00010854,"INCLINATION":97.8644,"RA_OF_ASC_NODE":201.9181,"ARG_OF_PERICENTER":91.585,"MEAN_ANOMALY":268.5484,"EPHEMERIS_TYPE":0,"CLASSIFICATION_TYPE":"U","NORAD_CAT_ID":35683,"ELEMENT_SET_NO":999,"REV_AT_EPOCH":89124,"BSTAR":0.0002252109,"MEAN_MOTION_DOT":1.495e-5,"MEAN_MOTION_DDOT":0},{"OBJECT_NAME":"METEOR-M 1","OBJECT_ID":"2009-049A","EPOCH":"2026-03-04T11:01:09.307200","MEAN_MOTION":14.23128887,"ECCENTRICITY":0.00011921,"INCLINATION":98.7265,"RA_OF_ASC_NODE":26.756,"ARG_OF_PERICENTER":239.6624,"MEAN_ANOMALY":120.4436,"EPHEMERIS_TYPE":0,"CLASSIFICATION_TYPE":"U","NORAD_CAT_ID":35865,"ELEMENT_SET_NO":999,"REV_AT_EPOCH":85435,"BSTAR":9.9617206e-5,"MEAN_MOTION_DOT":1.81e-6,"MEAN_MOTION_DDOT":0},{"OBJECT_NAME":"OCEANSAT-2","OBJECT_ID":"2009-051A","EPOCH":"2026-03-05T06:12:04.404384","MEAN_MOTION":13.99636222,"ECCENTRICITY":0.00170447,"INCLINATION":98.2273,"RA_OF_ASC_NODE":61.5163,"ARG_OF_PERICENTER":164.4026,"MEAN_ANOMALY":195.7669,"EPHEMERIS_TYPE":0,"CLASSIFICATION_TYPE":"U","NORAD_CAT_ID":35931,"ELEMENT_SET_NO":999,"REV_AT_EPOCH":86479,"BSTAR":8.2137761e-5,"MEAN_MOTION_DOT":8.3e-7,"MEAN_MOTION_DDOT":0},{"OBJECT_NAME":"SWISSCUBE","OBJECT_ID":"2009-051B","EPOCH":"2026-03-05T05:38:20.871456","MEAN_MOTION":14.62245193,"ECCENTRICITY":0.00067679,"INCLINATION":98.4103,"RA_OF_ASC_NODE":330.2989,"ARG_OF_PERICENTER":165.9945,"MEAN_ANOMALY":194.1445,"EPHEMERIS_TYPE":0,"CLASSIFICATION_TYPE":"U","NORAD_CAT_ID":35932,"ELEMENT_SET_NO":999,"REV_AT_EPOCH":87396,"BSTAR":0.00035985013,"MEAN_MOTION_DOT":1.765e-5,"MEAN_MOTION_DDOT":0},{"OBJECT_NAME":"BEESAT-1","OBJECT_ID":"2009-051C","EPOCH":"2026-03-05T04:35:44.959776","MEAN_MOTION":14.61520944,"ECCENTRICITY":0.00049981,"INCLINATION":98.4034,"RA_OF_ASC_NODE":330.1037,"ARG_OF_PERICENTER":176.8961,"MEAN_ANOMALY":183.2271,"EPHEMERIS_TYPE":0,"CLASSIFICATION_TYPE":"U","NORAD_CAT_ID":35933,"ELEMENT_SET_NO":999,"REV_AT_EPOCH":87399,"BSTAR":0.00030945209,"MEAN_MOTION_DOT":1.486e-5,"MEAN_MOTION_DDOT":0},{"OBJECT_NAME":"ITUPSAT1","OBJECT_ID":"2009-051E","EPOCH":"2026-03-05T05:29:34.719648","MEAN_MOTION":14.60257017,"ECCENTRICITY":0.00069575,"INCLINATION":98.412,"RA_OF_ASC_NODE":329.4408,"ARG_OF_PERICENTER":192.5039,"MEAN_ANOMALY":167.599,"EPHEMERIS_TYPE":0,"CLASSIFICATION_TYPE":"U","NORAD_CAT_ID":35935,"ELEMENT_SET_NO":999,"REV_AT_EPOCH":87356,"BSTAR":0.00029276943,"MEAN_MOTION_DOT":1.364e-5,"MEAN_MOTION_DDOT":0}]
